[{"id":"27844","name":"CUTE-1 (CO-55)","tle1":"1 27844U 03031E   26176.25618352  .00000279  00000+0  13960-3 0  9995","tle2":"2 27844  98.6736 184.7136 0010021 155.2513 204.9149 14.24340250192828"},{"id":"27848","name":"CUBESAT XI-IV (CO-57)","tle1":"1 27848U 03031J   26175.96755848  .00000227  00000+0  11865-3 0  9993","tle2":"2 27848  98.6767 184.1351 0009536 174.0960 186.0333 14.23624582192482"},{"id":"28895","name":"CUBESAT XI-V","tle1":"1 28895U 05043F   26175.26515780  .00001196  00000+0  19578-3 0  9998","tle2":"2 28895  98.2991 331.0356 0014129 178.0583 182.0681 14.72647893102798"},{"id":"32785","name":"CUTE-1.7+APD II (CO-65)","tle1":"1 32785U 08021C   26176.20348305  .00005470  00000+0  34493-3 0  9994","tle2":"2 32785  97.8276 157.7888 0008994  14.9930 345.1563 15.09522659986404"},{"id":"32790","name":"CANX-2","tle1":"1 32790U 08021H   26176.19675773  .00003796  00000+0  26695-3 0  9994","tle2":"2 32790  97.8640 156.1303 0011012  27.6807 332.5003 15.05671876986017"},{"id":"32791","name":"SEEDS II (CO-66)","tle1":"1 32791U 08021J   26175.96907043  .00019623  00000+0  61750-3 0  9994","tle2":"2 32791  97.7519 174.2392 0000309 241.1908 118.9302 15.32990296988484"},{"id":"35932","name":"SWISSCUBE","tle1":"1 35932U 09051B   26176.24188242  .00000935  00000+0  19415-3 0  9999","tle2":"2 35932  98.4030  84.2704 0006545 176.2173 183.9079 14.62495581890335"},{"id":"35933","name":"BEESAT-1","tle1":"1 35933U 09051C   26176.25551236  .00000777  00000+0  16579-3 0  9990","tle2":"2 35933  98.3958  83.9028 0004745 188.0709 172.0416 14.61732314890369"},{"id":"35935","name":"ITUPSAT1","tle1":"1 35935U 09051E   26175.29429429  .00000610  00000+0  13593-3 0  9992","tle2":"2 35935  98.4043  82.1112 0006604 208.5040 151.5799 14.60449650889770"},{"id":"36799","name":"TISAT 1","tle1":"1 36799U 10035E   26174.58415258  .00016171  00000+0  52704-3 0  9997","tle2":"2 36799  98.0701 121.7012 0002267 156.7166 203.4177 15.31915093868681"},{"id":"38767","name":"AEROCUBE 4.5A","tle1":"1 38767U 12048K   26176.22289682  .01017497  57352-3  13743-2 0  9991","tle2":"2 38767  64.6209 357.2594 0018146 245.5348 114.3927 16.05876637373948"},{"id":"39090","name":"STRAND-1","tle1":"1 39090U 13009E   26175.92326149  .00000262  00000+0  10254-3 0  9995","tle2":"2 39090  98.3924 355.9672 0008147 200.1736 159.9130 14.37167384698177"},{"id":"39091","name":"BRITE-AUSTRIA","tle1":"1 39091U 13009F   26176.28774049  .00000165  00000+0  70845-4 0  9997","tle2":"2 39091  98.3998 355.5230 0009532 210.0764 149.9877 14.36545008698219"},{"id":"39151","name":"NEE-01 PEGASO","tle1":"1 39151U 13018B   26175.36655388  .00002189  00000+0  21245-3 0  9993","tle2":"2 39151  98.1231 319.7543 0013537 136.3925 223.8366 14.93694125711772"},{"id":"39269","name":"POPACS 2","tle1":"1 39269U 13055E   26175.62451553  .00014675  00000+0  24673-3 0  9992","tle2":"2 39269  80.9904 135.6783 0416576 169.8894 191.1047 14.91388796664328"},{"id":"39270","name":"POPACS 3","tle1":"1 39270U 13055F   26174.85310494  .00008797  00000+0  20710-3 0  9992","tle2":"2 39270  81.0000 221.9595 0551484  49.7042 315.1016 14.56228835639524"},{"id":"39417","name":"ZACUBE-1 (TSHEPISOSAT)","tle1":"1 39417U 13066B   26176.13923660  .00003058  00000+0  23876-3 0  9996","tle2":"2 39417  97.8051 138.5170 0041881 220.5392 139.2711 15.01227074681925"},{"id":"39423","name":"WNISAT-1","tle1":"1 39423U 13066H   26176.17172689  .00001048  00000+0  19904-3 0  9998","tle2":"2 39423  97.7209 324.7616 0162449 206.2999 152.9888 14.58076379667896"},{"id":"39427","name":"TRITON-1","tle1":"1 39427U 13066M   26176.26429435  .00001992  00000+0  24287-3 0  9994","tle2":"2 39427  97.8238  85.8869 0088898 207.1845 152.4700 14.81730279675285"},{"id":"39430","name":"GOMX-1","tle1":"1 39430U 13066Q   26176.28897743  .00001508  00000+0  23114-3 0  9992","tle2":"2 39430  97.6488  16.2404 0129906  51.8356 309.4471 14.69484177671109"},{"id":"39440","name":"CUBEBUG-2 (LO-74)","tle1":"1 39440U 13066AA  26175.43150673  .00003300  00000+0  30669-3 0  9998","tle2":"2 39440  97.8904 124.4401 0057754   5.2541 354.9272 14.93815416678072"},{"id":"39441","name":"NEE-02 KRYSAOR","tle1":"1 39441U 13066AB  26176.08412519  .00002270  00000+0  25172-3 0  9999","tle2":"2 39441  97.8895 115.2423 0067265  44.8381 315.8242 14.86650633677378"},{"id":"39444","name":"FUNCUBE-1 (AO-73)","tle1":"1 39444U 13066AE  26175.67964979  .00006490  00000+0  40220-3 0  9997","tle2":"2 39444  97.8270 147.2816 0036428 175.4480 184.7087 15.09563414680793"},{"id":"39446","name":"UWE-3","tle1":"1 39446U 13066AG  26175.43428147  .00003951  00000+0  34050-3 0  9998","tle2":"2 39446  97.8706 131.5569 0046841 296.6681  62.9747 14.97078120678663"},{"id":"40020","name":"BRITE-CA1 (TORONTO)","tle1":"1 40020U 14033L   26175.64756184  .00000689  00000+0  11130-3 0  9990","tle2":"2 40020  97.9747 304.4382 0077269 252.6981 106.5763 14.72686478643317"},{"id":"40021","name":"DUCHIFAT-1","tle1":"1 40021U 14033M   26175.43754143  .00105271  00000+0  10238-2 0  9991","tle2":"2 40021  98.0461 235.6243 0001842 104.9324 255.2139 15.65947368656884"},{"id":"40024","name":"NANOSATC-BR1","tle1":"1 40024U 14033Q   26176.04552821  .00019914  00000+0  65250-3 0  9994","tle2":"2 40024  98.0726 209.1307 0005014 143.6872 216.4709 15.31685153655189"},{"id":"40025","name":"QB50P1","tle1":"1 40025U 14033R   26175.99266348  .00008784  00000+0  43065-3 0  9997","tle2":"2 40025  98.0964 187.6859 0008613 187.2704 172.8404 15.18365172654213"},{"id":"40032","name":"QB50P2","tle1":"1 40032U 14033Y   26175.95876877  .00007264  00000+0  38983-3 0  9990","tle2":"2 40032  98.0752 173.3228 0008701 139.9973 220.1900 15.15247970653846"},{"id":"40037","name":"PERSEUS-M2","tle1":"1 40037U 14033AD  26176.29275347  .00001994  00000+0  18529-3 0  9996","tle2":"2 40037  97.9970 126.9975 0009944 274.9600  85.0485 14.95538154651995"}]